ONEWEB-0207             
1 48242U 21031AJ  24334.46035761 -.00000006  00000+0 -50755-4 0  9998
2 48242  87.9016  41.9856 0001985 106.6384 253.4964 13.14502865174108
ONEWEB-0208             
1 48243U 21031AK  24333.45258965 -.00000132  00000+0 -39015-3 0  9995
2 48243  87.9024  42.2011 0001614 102.5411 257.5899 13.14502181173988
ONEWEB-0200             
1 48244U 21031AL  24334.48176308  .00000147  00000+0  36138-3 0  9997
2 48244  87.9026  41.9921 0001655 102.4302 257.7013 13.14501530174056
ONEWEB-0217             
1 48245U 21031AM  24333.66033312  .00000177  00000+0  44236-3 0  9995
2 48245  87.9022  42.1394 0001467 102.6571 257.4723 13.14501679173880
ONEWEB-0211             
1 48767U 21045A   24333.53271947 -.00000033  00000+0 -12248-3 0  9994
2 48767  87.9082  11.7839 0001690  89.5163 270.6161 13.15548330171178
ONEWEB-0223             
1 48768U 21045B   24334.08731980  .00000139  00000+0  33441-3 0  9997
2 48768  87.9081  11.6866 0001654  78.6071 281.5245 13.15547304171246
ONEWEB-0230             
1 48769U 21045C   24333.52639399 -.00000100  00000+0 -29995-3 0  9996
2 48769  87.9085  11.8670 0001934  93.1388 266.9963 13.15547533170292
ONEWEB-0237             
1 48770U 21045D   24333.59136583 -.00000080  00000+0 -24765-3 0  9999
2 48770  87.9093  11.7943 0001720  85.1683 274.9644 13.15547620170020
